start=new Date('2021-12-31T00:00:00.000Z').valueOf();
sats=[{"EPOCH":"2021-12-30T22:28:29.973792","NORAD_CAT_ID":"48481","ARG_OF_PERICENTER":"68.8338","MEAN_MOTION_DDOT":"0.0000000000000","GP_ID":"192795288","DECAY_DATE":null,"TIME_SYSTEM":"UTC","TLE_LINE1":"1 48481U 21040BF  21364.93645803 -.00000991  00000-0 -47633-4 0  9994","COUNTRY_CODE":"US","PERIOD":"95.593","CENTER_NAME":"EARTH","MEAN_MOTION":"15.06389051","BSTAR":"-0.00004763300000","PERIAPSIS":"545.994","MEAN_MOTION_DOT":"-0.00000991","REV_AT_EPOCH":"3577","RCS_SIZE":"LARGE","MEAN_ANOMALY":"291.2844","FILE":"3255240","LAUNCH_DATE":"2021-05-09","APOAPSIS":"548.500","CLASSIFICATION_TYPE":"U","INCLINATION":"53.0547","SEMIMAJOR_AXIS":"6925.382","EPHEMERIS_TYPE":"0","ECCENTRICITY":"0.00018090","MEAN_ELEMENT_THEORY":"SGP4","SITE":"AFETR","OBJECT_TYPE":"PAYLOAD","TLE_LINE2":"2 48481  53.0547 228.9430 0001809  68.8338 291.2844 15.06389051 35773","RA_OF_ASC_NODE":"228.9430","REF_FRAME":"TEME","ELEMENT_SET_NO":"999","OBJECT_NAME":"STARLINK-2706","OBJECT_ID":"2021-040BF"},{"INCLINATION":"53.0551","SEMIMAJOR_AXIS":"6925.349","CLASSIFICATION_TYPE":"U","ECCENTRICITY":"0.00020850","MEAN_ELEMENT_THEORY":"SGP4","EPHEMERIS_TYPE":"0","SITE":"AFETR","TLE_LINE2":"2 48482  53.0551 229.2737 0002085  67.7565 292.3645 15.06399722 35766","OBJECT_TYPE":"PAYLOAD","REF_FRAME":"TEME","ELEMENT_SET_NO":"999","RA_OF_ASC_NODE":"229.2737","OBJECT_ID":"2021-040BG","OBJECT_NAME":"STARLINK-2525","ARG_OF_PERICENTER":"67.7565","GP_ID":"192796037","MEAN_MOTION_DDOT":"0.0000000000000","EPOCH":"2021-12-30T20:43:42.148128","NORAD_CAT_ID":"48482","TLE_LINE1":"1 48482U 21040BG  21364.86368227  .00000093  00000-0  25140-4 0  9999","TIME_SYSTEM":"UTC","DECAY_DATE":null,"PERIOD":"95.592","COUNTRY_CODE":"US","CENTER_NAME":"EARTH","MEAN_MOTION":"15.06399722","REV_AT_EPOCH":"3576","RCS_SIZE":"LARGE","BSTAR":"0.00002514000000","PERIAPSIS":"545.770","MEAN_MOTION_DOT":"0.00000093","LAUNCH_DATE":"2021-05-09","APOAPSIS":"548.658","MEAN_ANOMALY":"292.3645","FILE":"3255240"},{"TLE_LINE2":"2 48483  53.0545 229.2879 0002012  60.3362 299.7827 15.06388512 35769","OBJECT_TYPE":"PAYLOAD","SITE":"AFETR","ELEMENT_SET_NO":"999","REF_FRAME":"TEME","RA_OF_ASC_NODE":"229.2879","OBJECT_ID":"2021-040BH","OBJECT_NAME":"STARLINK-2531","SEMIMAJOR_AXIS":"6925.384","INCLINATION":"53.0545","CLASSIFICATION_TYPE":"U","MEAN_ELEMENT_THEORY":"SGP4","ECCENTRICITY":"0.00020120","EPHEMERIS_TYPE":"0","RCS_SIZE":"LARGE","REV_AT_EPOCH":"3576","PERIAPSIS":"545.855","MEAN_MOTION_DOT":"-0.00001252","BSTAR":"-0.00006515000000","APOAPSIS":"548.642","LAUNCH_DATE":"2021-05-09","FILE":"3255240","MEAN_ANOMALY":"299.7827","GP_ID":"192796289","MEAN_MOTION_DDOT":"0.0000000000000","ARG_OF_PERICENTER":"60.3362","NORAD_CAT_ID":"48483","EPOCH":"2021-12-30T20:38:23.952480","TLE_LINE1":"1 48483U 21040BH  21364.85999945 -.00001252  00000-0 -65150-4 0  9991","TIME_SYSTEM":"UTC","DECAY_DATE":null,"MEAN_MOTION":"15.06388512","COUNTRY_CODE":"US","PERIOD":"95.593","CENTER_NAME":"EARTH"},{"SITE":"AFETR","OBJECT_TYPE":"PAYLOAD","TLE_LINE2":"2 48484  53.0555 229.0891 0002384  73.0028 287.1222 15.06391030 35775","RA_OF_ASC_NODE":"229.0891","ELEMENT_SET_NO":"999","REF_FRAME":"TEME","OBJECT_NAME":"STARLINK-2696","OBJECT_ID":"2021-040BJ","CLASSIFICATION_TYPE":"U","INCLINATION":"53.0555","SEMIMAJOR_AXIS":"6925.376","EPHEMERIS_TYPE":"0","ECCENTRICITY":"0.00023840","MEAN_ELEMENT_THEORY":"SGP4","BSTAR":"-0.00002060800000","PERIAPSIS":"545.590","MEAN_MOTION_DOT":"-0.00000589","REV_AT_EPOCH":"3577","RCS_SIZE":"LARGE","MEAN_ANOMALY":"287.1222","FILE":"3255240","LAUNCH_DATE":"2021-05-09","APOAPSIS":"548.892","EPOCH":"2021-12-30T21:40:44.257728","NORAD_CAT_ID":"48484","ARG_OF_PERICENTER":"73.0028","MEAN_MOTION_DDOT":"0.0000000000000","GP_ID":"192797039","DECAY_DATE":null,"TIME_SYSTEM":"UTC","TLE_LINE1":"1 48484U 21040BJ  21364.90329002 -.00000589  00000-0 -20608-4 0  9990","COUNTRY_CODE":"US","PERIOD":"95.593","CENTER_NAME":"EARTH","MEAN_MOTION":"15.06391030"},{"RCS_SIZE":"LARGE","REV_AT_EPOCH":"3577","PERIAPSIS":"545.784","MEAN_MOTION_DOT":"0.00000381","BSTAR":"0.00004450500000","APOAPSIS":"548.651","LAUNCH_DATE":"2021-05-09","FILE":"3255240","MEAN_ANOMALY":"291.7012","GP_ID":"192795788","MEAN_MOTION_DDOT":"0.0000000000000","ARG_OF_PERICENTER":"68.4198","NORAD_CAT_ID":"48485","EPOCH":"2021-12-30T22:24:33.067584","TLE_LINE1":"1 48485U 21040BK  21364.93371606  .00000381  00000-0  44505-4 0  9991","TIME_SYSTEM":"UTC","DECAY_DATE":null,"MEAN_MOTION":"15.06398799","PERIOD":"95.592","COUNTRY_CODE":"US","CENTER_NAME":"EARTH","OBJECT_TYPE":"PAYLOAD","TLE_LINE2":"2 48485  53.0545 228.9577 0002070  68.4198 291.7012 15.06398799 35779","SITE":"AFETR","ELEMENT_SET_NO":"999","REF_FRAME":"TEME","RA_OF_ASC_NODE":"228.9577","OBJECT_ID":"2021-040BK","OBJECT_NAME":"STARLINK-2500","SEMIMAJOR_AXIS":"6925.352","INCLINATION":"53.0545","CLASSIFICATION_TYPE":"U","MEAN_ELEMENT_THEORY":"SGP4","ECCENTRICITY":"0.00020700","EPHEMERIS_TYPE":"0"},{"EPHEMERIS_TYPE":"0","MEAN_ELEMENT_THEORY":"SGP4","ECCENTRICITY":"0.00018200","CLASSIFICATION_TYPE":"U","SEMIMAJOR_AXIS":"6925.354","INCLINATION":"53.0541","RA_OF_ASC_NODE":"228.9373","ELEMENT_SET_NO":"999","REF_FRAME":"TEME","OBJECT_NAME":"STARLINK-2496","OBJECT_ID":"2021-040BL","TLE_LINE2":"2 48486  53.0541 228.9373 0001820  71.3433 288.7753 15.06398221 35775","OBJECT_TYPE":"PAYLOAD","SITE":"AFETR","DECAY_DATE":null,"TLE_LINE1":"1 48486U 21040BL  21364.93739784  .00000333  00000-0  41270-4 0  9990","TIME_SYSTEM":"UTC","MEAN_MOTION":"15.06398221","COUNTRY_CODE":"US","CENTER_NAME":"EARTH","PERIOD":"95.592","NORAD_CAT_ID":"48486","EPOCH":"2021-12-30T22:29:51.173376","MEAN_MOTION_DDOT":"0.0000000000000","GP_ID":"192795539","ARG_OF_PERICENTER":"71.3433","MEAN_MOTION_DOT":"0.00000333","PERIAPSIS":"545.959","BSTAR":"0.00004127000000","RCS_SIZE":"LARGE","REV_AT_EPOCH":"3577","FILE":"3255240","MEAN_ANOMALY":"288.7753","APOAPSIS":"548.479","LAUNCH_DATE":"2021-05-09"},{"MEAN_ELEMENT_THEORY":"SGP4","ECCENTRICITY":"0.00018530","EPHEMERIS_TYPE":"0","SEMIMAJOR_AXIS":"6925.362","INCLINATION":"53.0557","CLASSIFICATION_TYPE":"U","ELEMENT_SET_NO":"999","REF_FRAME":"TEME","RA_OF_ASC_NODE":"228.9386","OBJECT_ID":"2021-040BM","OBJECT_NAME":"STARLINK-2494","TLE_LINE2":"2 48487  53.0557 228.9386 0001853  65.4851 294.6331 15.06395651 35784","OBJECT_TYPE":"PAYLOAD","SITE":"AFETR","TIME_SYSTEM":"UTC","TLE_LINE1":"1 48487U 21040BM  21364.94108822  .00000361  00000-0  43169-4 0  9995","DECAY_DATE":null,"MEAN_MOTION":"15.06395651","PERIOD":"95.592","COUNTRY_CODE":"US","CENTER_NAME":"EARTH","GP_ID":"192796789","MEAN_MOTION_DDOT":"0.0000000000000","ARG_OF_PERICENTER":"65.4851","NORAD_CAT_ID":"48487","EPOCH":"2021-12-30T22:35:10.022208","RCS_SIZE":"LARGE","REV_AT_EPOCH":"3578","MEAN_MOTION_DOT":"0.00000361","PERIAPSIS":"545.944","BSTAR":"0.00004316900000","APOAPSIS":"548.510","LAUNCH_DATE":"2021-05-09","FILE":"3255240","MEAN_ANOMALY":"294.6331"},{"INCLINATION":"53.0546","SEMIMAJOR_AXIS":"6925.386","CLASSIFICATION_TYPE":"U","ECCENTRICITY":"0.00025860","MEAN_ELEMENT_THEORY":"SGP4","EPHEMERIS_TYPE":"0","SITE":"AFETR","TLE_LINE2":"2 48553  53.0546 159.3318 0002586  90.3355 269.7930 15.06387849 34628","OBJECT_TYPE":"PAYLOAD","REF_FRAME":"TEME","ELEMENT_SET_NO":"999","RA_OF_ASC_NODE":"159.3318","OBJECT_ID":"2021-041A","OBJECT_NAME":"STARLINK-2063","ARG_OF_PERICENTER":"90.3355","MEAN_MOTION_DDOT":"0.0000000000000","GP_ID":"192795796","EPOCH":"2021-12-30T20:26:27.074400","NORAD_CAT_ID":"48553","TIME_SYSTEM":"UTC","TLE_LINE1":"1 48553U 21041A   21364.85170225 -.00000128  00000-0  10363-4 0  9998","DECAY_DATE":null,"COUNTRY_CODE":"US","PERIOD":"95.593","CENTER_NAME":"EARTH","MEAN_MOTION":"15.06387849","REV_AT_EPOCH":"3462","RCS_SIZE":"LARGE","BSTAR":"0.00001036300000","MEAN_MOTION_DOT":"-0.00000128","PERIAPSIS":"545.460","LAUNCH_DATE":"2021-05-15","APOAPSIS":"549.042","MEAN_ANOMALY":"269.7930","FILE":"3255240"},{"MEAN_ELEMENT_THEORY":"SGP4","ECCENTRICITY":"0.00026660","EPHEMERIS_TYPE":"0","SEMIMAJOR_AXIS":"6925.378","INCLINATION":"53.0541","CLASSIFICATION_TYPE":"U","ELEMENT_SET_NO":"999","REF_FRAME":"TEME","RA_OF_ASC_NODE":"159.3005","OBJECT_ID":"2021-041B","OBJECT_NAME":"STARLINK-2139","TLE_LINE2":"2 48554  53.0541 159.3005 0002666  97.1433 262.9859 15.06390305 34624","OBJECT_TYPE":"PAYLOAD","SITE":"AFETR","TIME_SYSTEM":"UTC","TLE_LINE1":"1 48554U 21041B   21364.85907348 -.00000604  00000-0 -21653-4 0  9997","DECAY_DATE":null,"MEAN_MOTION":"15.06390305","COUNTRY_CODE":"US","CENTER_NAME":"EARTH","PERIOD":"95.593","GP_ID":"192795547","MEAN_MOTION_DDOT":"0.0000000000000","ARG_OF_PERICENTER":"97.1433","NORAD_CAT_ID":"48554","EPOCH":"2021-12-30T20:37:03.948672","RCS_SIZE":"LARGE","REV_AT_EPOCH":"3462","MEAN_MOTION_DOT":"-0.00000604","PERIAPSIS":"545.397","BSTAR":"-0.00002165300000","APOAPSIS":"549.090","LAUNCH_DATE":"2021-05-15","FILE":"3255240","MEAN_ANOMALY":"262.9859"},{"TLE_LINE2":"2 48555  53.0552 169.1716 0002409  89.9060 270.2205 15.06396228 34486","OBJECT_TYPE":"PAYLOAD","SITE":"AFETR","OBJECT_NAME":"STARLINK-2145","OBJECT_ID":"2021-041C","RA_OF_ASC_NODE":"169.1716","ELEMENT_SET_NO":"999","REF_FRAME":"TEME","CLASSIFICATION_TYPE":"U","SEMIMAJOR_AXIS":"6925.360","INCLINATION":"53.0552","EPHEMERIS_TYPE":"0","MEAN_ELEMENT_THEORY":"SGP4","ECCENTRICITY":"0.00024090","FILE":"3255240","MEAN_ANOMALY":"270.2205","APOAPSIS":"548.893","LAUNCH_DATE":"2021-05-15","MEAN_MOTION_DOT":"0.00001079","PERIAPSIS":"545.557","BSTAR":"0.00009136400000","RCS_SIZE":"LARGE","REV_AT_EPOCH":"3448","NORAD_CAT_ID":"48555","EPOCH":"2021-12-30T21:18:11.601792","GP_ID":"192796797","MEAN_MOTION_DDOT":"0.0000000000000","ARG_OF_PERICENTER":"89.9060","MEAN_MOTION":"15.06396228","COUNTRY_CODE":"US","PERIOD":"95.592","CENTER_NAME":"EARTH","DECAY_DATE":null,"TIME_SYSTEM":"UTC","TLE_LINE1":"1 48555U 21041C   21364.88763428  .00001079  00000-0  91364-4 0  9991"}];
